{
  "norad_id": 55631,
  "name": "STARLINK-5558",
  "history": [
    {
      "epoch": "2026-04-13T07:01:11.510976Z",
      "apogee_km": 574.3151054353975,
      "perigee_km": 569.738978426909,
      "latitude_deg": 1.900618858963017e-05,
      "longitude_deg": 170.33557980507274,
      "height_km": 574.4180537686175,
      "semi_major_axis_km": 6950.1640419311525,
      "eccentricity": 0.00032921,
      "inclination_deg": 69.998,
      "raan_deg": 117.1189,
      "arg_perigee_deg": 270.9162,
      "mean_anomaly_deg": 89.162,
      "mean_motion_rev_day": 14.98339329
    },
    {
      "epoch": "2026-04-14T18:16:08.525856Z",
      "apogee_km": 574.3228797236789,
      "perigee_km": 569.749665710231,
      "latitude_deg": -3.2750625321541043e-06,
      "longitude_deg": -3.5531207013200463,
      "height_km": 574.429099709226,
      "semi_major_axis_km": 6950.173272716955,
      "eccentricity": 0.000329,
      "inclination_deg": 69.9981,
      "raan_deg": 113.4154,
      "arg_perigee_deg": 270.8714,
      "mean_anomaly_deg": 89.2068,
      "mean_motion_rev_day": 14.98336344
    },
    {
      "epoch": "2026-04-15T10:17:29.059584Z",
      "apogee_km": 574.3148025751898,
      "perigee_km": 569.771330861975,
      "latitude_deg": 4.818808739998452e-05,
      "longitude_deg": 113.77022657393783,
      "height_km": 574.4343274213712,
      "semi_major_axis_km": 6950.180066718583,
      "eccentricity": 0.00032686,
      "inclination_deg": 69.9982,
      "raan_deg": 111.7323,
      "arg_perigee_deg": 270.9161,
      "mean_anomaly_deg": 89.1624,
      "mean_motion_rev_day": 14.98334147
    },
    {
      "epoch": "2026-04-16T10:19:29.847648Z",
      "apogee_km": 574.3026288404471,
      "perigee_km": 569.7919592336175,
      "latitude_deg": -2.0398980879255654e-05,
      "longitude_deg": 109.75499718307204,
      "height_km": 574.430980723637,
      "semi_major_axis_km": 6950.184294037032,
      "eccentricity": 0.0003245,
      "inclination_deg": 69.9983,
      "raan_deg": 109.2074,
      "arg_perigee_deg": 271.1149,
      "mean_anomaly_deg": 88.9638,
      "mean_motion_rev_day": 14.9833278
    },
    {
      "epoch": "2026-04-17T23:10:35.170176Z",
      "apogee_km": 574.292746009507,
      "perigee_km": 569.8087628778503,
      "latitude_deg": 5.133503754579107e-05,
      "longitude_deg": -88.40228829680558,
      "height_km": 574.4225251327535,
      "semi_major_axis_km": 6950.187754443678,
      "eccentricity": 0.00032258,
      "inclination_deg": 69.9984,
      "raan_deg": 105.3357,
      "arg_perigee_deg": 271.4256,
      "mean_anomaly_deg": 88.6534,
      "mean_motion_rev_day": 14.98331661
    }
  ]
}